ONEWEB-0082             
1 45452U 20020AE  25344.26979631  .00000504  00000+0  13871-2 0  9995
2 45452  87.8878  58.6601 0001946 102.6876 257.4470 13.11419716277913
ONEWEB-0050             
1 45453U 20020AF  25344.22165259  .00005193  00000+0  54319-3 0  9997
2 45453  88.9235 258.9866 0001502 355.3747   4.7468 14.89518954312249
ONEWEB-0034             
1 45454U 20020AG  25344.29099429  .00000487  00000+0  13396-2 0  9990
2 45454  87.8861  58.6699 0001752 103.8333 256.2990 13.11413962277832
ONEWEB-0060             
1 45455U 20020AH  25344.26216977  .00000172  00000+0  45079-3 0  9992
2 45455  87.8856  58.6935 0002760 100.6483 259.4956 13.11419161277789
ONEWEB-0086             
1 45456U 20020AJ  25344.24097442 -.00000455  00000+0 -13208-2 0  9999
2 45456  87.8865  58.6774 0002249  87.5435 272.5951 13.11417200277843
ONEWEB-0088             
1 45457U 20020AK  25344.21892025 -.00000755  00000+0 -21660-2 0  9991
2 45457  87.8875  58.6368 0001843 109.5799 250.5528 13.11417020277779
ONEWEB-0102             
1 47258U 20100A   25344.14284746 -.00000146  00000+0 -44044-3 0  9994
2 47258  87.8937  28.2397 0001627  93.3772 266.7542 13.12443717239939
ONEWEB-0109             
1 47259U 20100B   25344.15095290 -.00000390  00000+0 -11202-2 0  9990
2 47259  87.8945  28.2066 0001646  94.8336 265.2981 13.12444597239764
ONEWEB-0110             
1 47260U 20100C   25344.17692144  .00000090  00000+0  21569-3 0  9998
2 47260  87.8945  28.1853 0001987  93.0672 267.0684 13.12443798239932
ONEWEB-0111             
1 47261U 20100D   25344.13149948  .00000222  00000+0  58064-3 0  9991
2 47261  87.8944  28.2123 0001731  96.3722 263.7603 13.12443677239763
ONEWEB-0114             
1 47262U 20100E   25344.16230903 -.00000159  00000+0 -47701-3 0  9994
2 47262  87.8946  28.2010 0001434  95.5289 264.6003 13.12438230239729
ONEWEB-0117             
1 47263U 20100F   25344.15419165 -.00000376  00000+0 -10805-2 0  9998
2 47263  87.8944  28.1998 0001794  97.5622 262.5710 13.12444825239734
ONEWEB-0118             
1 47264U 20100G   25344.18664559  .00000423  00000+0  11417-2 0  9992
2 47264  87.8944  28.1924 0001414 103.1609 256.9677 13.12445130239933
ONEWEB-0119             
1 47265U 20100H   25344.13797995 -.00000064  00000+0 -21405-3 0  9991
2 47265  87.8935  28.2374 0001755  95.6917 264.4411 13.12443316239900
ONEWEB-0120             
1 47266U 20100J   25344.16082893 -.00000327  00000+0 -94424-3 0  9992
2 47266  87.8937  28.2338 0001659  97.0235 263.1082 13.12444175239932
ONEWEB-0121             
1 47267U 20100K   25344.14932649 -.00000263  00000+0 -76533-3 0  9994
2 47267  87.8943  28.2045 0001915  95.5951 264.5396 13.12444084239840
