[{"OBJECT_NAME":"ONEWEB-0082","OBJECT_ID":"2020-020AE","EPOCH":"2025-12-10T06:28:30.401184","MEAN_MOTION":13.11419716,"ECCENTRICITY":0.00019463,"INCLINATION":87.8878,"RA_OF_ASC_NODE":58.6601,"ARG_OF_PERICENTER":102.6876,"MEAN_ANOMALY":257.447,"EPHEMERIS_TYPE":0,"CLASSIFICATION_TYPE":"U","NORAD_CAT_ID":45452,"ELEMENT_SET_NO":999,"REV_AT_EPOCH":27791,"BSTAR":0.0013870852,"MEAN_MOTION_DOT":5.04e-6,"MEAN_MOTION_DDOT":0},{"OBJECT_NAME":"ONEWEB-0050","OBJECT_ID":"2020-020AF","EPOCH":"2025-12-10T05:19:10.783776","MEAN_MOTION":14.89518954,"ECCENTRICITY":0.0001502,"INCLINATION":88.9235,"RA_OF_ASC_NODE":258.9866,"ARG_OF_PERICENTER":355.3747,"MEAN_ANOMALY":4.7468,"EPHEMERIS_TYPE":0,"CLASSIFICATION_TYPE":"U","NORAD_CAT_ID":45453,"ELEMENT_SET_NO":999,"REV_AT_EPOCH":31224,"BSTAR":0.0005431895,"MEAN_MOTION_DOT":5.193e-5,"MEAN_MOTION_DDOT":0},{"OBJECT_NAME":"ONEWEB-0034","OBJECT_ID":"2020-020AG","EPOCH":"2025-12-10T06:59:01.906656","MEAN_MOTION":13.11413962,"ECCENTRICITY":0.00017525,"INCLINATION":87.8861,"RA_OF_ASC_NODE":58.6699,"ARG_OF_PERICENTER":103.8333,"MEAN_ANOMALY":256.299,"EPHEMERIS_TYPE":0,"CLASSIFICATION_TYPE":"U","NORAD_CAT_ID":45454,"ELEMENT_SET_NO":999,"REV_AT_EPOCH":27783,"BSTAR":0.0013396253,"MEAN_MOTION_DOT":4.87e-6,"MEAN_MOTION_DDOT":0},{"OBJECT_NAME":"ONEWEB-0060","OBJECT_ID":"2020-020AH","EPOCH":"2025-12-10T06:17:31.468128","MEAN_MOTION":13.11419161,"ECCENTRICITY":0.00027604,"INCLINATION":87.8856,"RA_OF_ASC_NODE":58.6935,"ARG_OF_PERICENTER":100.6483,"MEAN_ANOMALY":259.4956,"EPHEMERIS_TYPE":0,"CLASSIFICATION_TYPE":"U","NORAD_CAT_ID":45455,"ELEMENT_SET_NO":999,"REV_AT_EPOCH":27778,"BSTAR":0.00045079146,"MEAN_MOTION_DOT":1.72e-6,"MEAN_MOTION_DDOT":0},{"OBJECT_NAME":"ONEWEB-0086","OBJECT_ID":"2020-020AJ","EPOCH":"2025-12-10T05:47:00.189888","MEAN_MOTION":13.114172,"ECCENTRICITY":0.00022497,"INCLINATION":87.8865,"RA_OF_ASC_NODE":58.6774,"ARG_OF_PERICENTER":87.5435,"MEAN_ANOMALY":272.5951,"EPHEMERIS_TYPE":0,"CLASSIFICATION_TYPE":"U","NORAD_CAT_ID":45456,"ELEMENT_SET_NO":999,"REV_AT_EPOCH":27784,"BSTAR":-0.0013208481,"MEAN_MOTION_DOT":-4.55e-6,"MEAN_MOTION_DDOT":0},{"OBJECT_NAME":"ONEWEB-0088","OBJECT_ID":"2020-020AK","EPOCH":"2025-12-10T05:15:14.709600","MEAN_MOTION":13.1141702,"ECCENTRICITY":0.00018431,"INCLINATION":87.8875,"RA_OF_ASC_NODE":58.6368,"ARG_OF_PERICENTER":109.5799,"MEAN_ANOMALY":250.5528,"EPHEMERIS_TYPE":0,"CLASSIFICATION_TYPE":"U","NORAD_CAT_ID":45457,"ELEMENT_SET_NO":999,"REV_AT_EPOCH":27777,"BSTAR":-0.0021660388,"MEAN_MOTION_DOT":-7.55e-6,"MEAN_MOTION_DDOT":0},{"OBJECT_NAME":"ONEWEB-0102","OBJECT_ID":"2020-100A","EPOCH":"2025-12-10T03:25:42.020544","MEAN_MOTION":13.12443717,"ECCENTRICITY":0.00016278,"INCLINATION":87.8937,"RA_OF_ASC_NODE":28.2397,"ARG_OF_PERICENTER":93.3772,"MEAN_ANOMALY":266.7542,"EPHEMERIS_TYPE":0,"CLASSIFICATION_TYPE":"U","NORAD_CAT_ID":47258,"ELEMENT_SET_NO":999,"REV_AT_EPOCH":23993,"BSTAR":-0.00044043604,"MEAN_MOTION_DOT":-1.46e-6,"MEAN_MOTION_DDOT":0},{"OBJECT_NAME":"ONEWEB-0109","OBJECT_ID":"2020-100B","EPOCH":"2025-12-10T03:37:22.330560","MEAN_MOTION":13.12444597,"ECCENTRICITY":0.00016469,"INCLINATION":87.8945,"RA_OF_ASC_NODE":28.2066,"ARG_OF_PERICENTER":94.8336,"MEAN_ANOMALY":265.2981,"EPHEMERIS_TYPE":0,"CLASSIFICATION_TYPE":"U","NORAD_CAT_ID":47259,"ELEMENT_SET_NO":999,"REV_AT_EPOCH":23976,"BSTAR":-0.0011201714,"MEAN_MOTION_DOT":-3.9e-6,"MEAN_MOTION_DDOT":0},{"OBJECT_NAME":"ONEWEB-0110","OBJECT_ID":"2020-100C","EPOCH":"2025-12-10T04:14:46.012416","MEAN_MOTION":13.12443798,"ECCENTRICITY":0.00019879,"INCLINATION":87.8945,"RA_OF_ASC_NODE":28.1853,"ARG_OF_PERICENTER":93.0672,"MEAN_ANOMALY":267.0684,"EPHEMERIS_TYPE":0,"CLASSIFICATION_TYPE":"U","NORAD_CAT_ID":47260,"ELEMENT_SET_NO":999,"REV_AT_EPOCH":23993,"BSTAR":0.00021569453,"MEAN_MOTION_DOT":9.0e-7,"MEAN_MOTION_DDOT":0},{"OBJECT_NAME":"ONEWEB-0111","OBJECT_ID":"2020-100D","EPOCH":"2025-12-10T03:09:21.555072","MEAN_MOTION":13.12443677,"ECCENTRICITY":0.00017315,"INCLINATION":87.8944,"RA_OF_ASC_NODE":28.2123,"ARG_OF_PERICENTER":96.3722,"MEAN_ANOMALY":263.7603,"EPHEMERIS_TYPE":0,"CLASSIFICATION_TYPE":"U","NORAD_CAT_ID":47261,"ELEMENT_SET_NO":999,"REV_AT_EPOCH":23976,"BSTAR":0.00058064288,"MEAN_MOTION_DOT":2.22e-6,"MEAN_MOTION_DDOT":0},{"OBJECT_NAME":"ONEWEB-0114","OBJECT_ID":"2020-100E","EPOCH":"2025-12-10T03:53:43.500192","MEAN_MOTION":13.1243823,"ECCENTRICITY":0.00014345,"INCLINATION":87.8946,"RA_OF_ASC_NODE":28.201,"ARG_OF_PERICENTER":95.5289,"MEAN_ANOMALY":264.6003,"EPHEMERIS_TYPE":0,"CLASSIFICATION_TYPE":"U","NORAD_CAT_ID":47262,"ELEMENT_SET_NO":999,"REV_AT_EPOCH":23972,"BSTAR":-0.00047701041,"MEAN_MOTION_DOT":-1.59e-6,"MEAN_MOTION_DDOT":0},{"OBJECT_NAME":"ONEWEB-0117","OBJECT_ID":"2020-100F","EPOCH":"2025-12-10T03:42:02.158560","MEAN_MOTION":13.12444825,"ECCENTRICITY":0.00017945,"INCLINATION":87.8944,"RA_OF_ASC_NODE":28.1998,"ARG_OF_PERICENTER":97.5622,"MEAN_ANOMALY":262.571,"EPHEMERIS_TYPE":0,"CLASSIFICATION_TYPE":"U","NORAD_CAT_ID":47263,"ELEMENT_SET_NO":999,"REV_AT_EPOCH":23973,"BSTAR":-0.0010805426,"MEAN_MOTION_DOT":-3.76e-6,"MEAN_MOTION_DDOT":0},{"OBJECT_NAME":"ONEWEB-0118","OBJECT_ID":"2020-100G","EPOCH":"2025-12-10T04:28:46.178976","MEAN_MOTION":13.1244513,"ECCENTRICITY":0.00014143,"INCLINATION":87.8944,"RA_OF_ASC_NODE":28.1924,"ARG_OF_PERICENTER":103.1609,"MEAN_ANOMALY":256.9677,"EPHEMERIS_TYPE":0,"CLASSIFICATION_TYPE":"U","NORAD_CAT_ID":47264,"ELEMENT_SET_NO":999,"REV_AT_EPOCH":23993,"BSTAR":0.0011417182,"MEAN_MOTION_DOT":4.23e-6,"MEAN_MOTION_DDOT":0},{"OBJECT_NAME":"ONEWEB-0119","OBJECT_ID":"2020-100H","EPOCH":"2025-12-10T03:18:41.467680","MEAN_MOTION":13.12443316,"ECCENTRICITY":0.00017554,"INCLINATION":87.8935,"RA_OF_ASC_NODE":28.2374,"ARG_OF_PERICENTER":95.6917,"MEAN_ANOMALY":264.4411,"EPHEMERIS_TYPE":0,"CLASSIFICATION_TYPE":"U","NORAD_CAT_ID":47265,"ELEMENT_SET_NO":999,"REV_AT_EPOCH":23990,"BSTAR":-0.00021405383,"MEAN_MOTION_DOT":-6.4e-7,"MEAN_MOTION_DDOT":0},{"OBJECT_NAME":"ONEWEB-0120","OBJECT_ID":"2020-100J","EPOCH":"2025-12-10T03:51:35.619552","MEAN_MOTION":13.12444175,"ECCENTRICITY":0.00016597,"INCLINATION":87.8937,"RA_OF_ASC_NODE":28.2338,"ARG_OF_PERICENTER":97.0235,"MEAN_ANOMALY":263.1082,"EPHEMERIS_TYPE":0,"CLASSIFICATION_TYPE":"U","NORAD_CAT_ID":47266,"ELEMENT_SET_NO":999,"REV_AT_EPOCH":23993,"BSTAR":-0.00094424164,"MEAN_MOTION_DOT":-3.27e-6,"MEAN_MOTION_DDOT":0},{"OBJECT_NAME":"ONEWEB-0121","OBJECT_ID":"2020-100K","EPOCH":"2025-12-10T03:35:01.808736","MEAN_MOTION":13.12444084,"ECCENTRICITY":0.00019155,"INCLINATION":87.8943,"RA_OF_ASC_NODE":28.2045,"ARG_OF_PERICENTER":95.5951,"MEAN_ANOMALY":264.5396,"EPHEMERIS_TYPE":0,"CLASSIFICATION_TYPE":"U","NORAD_CAT_ID":47267,"ELEMENT_SET_NO":999,"REV_AT_EPOCH":23984,"BSTAR":-0.00076532971,"MEAN_MOTION_DOT":-2.63e-6,"MEAN_MOTION_DDOT":0}]
